{
    "links": {
        "self": "http://www.neowsapp.com/rest/v1/neo/3837526?api_key=iIulBulltgU6a56xZRHN4H3l9WmuAYTsLGpBGhQ2"
    },
    "id": "3837526",
    "neo_reference_id": "3837526",
    "name": "(2018 YL2)",
    "designation": "2018 YL2",
    "nasa_jpl_url": "http://ssd.jpl.nasa.gov/sbdb.cgi?sstr=3837526",
    "absolute_magnitude_h": 29.4,
    "estimated_diameter": {
        "kilometers": {
            "estimated_diameter_min": 0.0035039264,
            "estimated_diameter_max": 0.0078350176
        },
        "meters": {
            "estimated_diameter_min": 3.5039264111,
            "estimated_diameter_max": 7.8350176433
        },
        "miles": {
            "estimated_diameter_min": 0.0021772383,
            "estimated_diameter_max": 0.0048684527
        },
        "feet": {
            "estimated_diameter_min": 11.4958219265,
            "estimated_diameter_max": 25.705439285
        }
    },
    "is_potentially_hazardous_asteroid": false,
    "close_approach_data": [
        {
            "close_approach_date": "2018-12-27",
            "close_approach_date_full": "2018-Dec-27 17:33",
            "epoch_date_close_approach": 1545931980000,
            "relative_velocity": {
                "kilometers_per_second": "11.9115013645",
                "kilometers_per_hour": "42881.4049120643",
                "miles_per_hour": "26644.8374021657"
            },
            "miss_distance": {
                "astronomical": "0.000397959",
                "lunar": "0.154806051",
                "kilometers": "59533.81874733",
                "miles": "36992.599599954"
            },
            "orbiting_body": "Earth"
        },
        {
            "close_approach_date": "2018-12-27",
            "close_approach_date_full": "2018-Dec-27 23:40",
            "epoch_date_close_approach": 1545954000000,
            "relative_velocity": {
                "kilometers_per_second": "12.1533963698",
                "kilometers_per_hour": "43752.2269314485",
                "miles_per_hour": "27185.9323397103"
            },
            "miss_distance": {
                "astronomical": "0.0013113822",
                "lunar": "0.5101276758",
                "kilometers": "196179.983875914",
                "miles": "121900.5893750532"
            },
            "orbiting_body": "Moon"
        }
    ],
    "orbital_data": {
        "orbit_id": "2",
        "orbit_determination_date": "2019-01-08 06:56:03",
        "first_observation_date": "2018-12-28",
        "last_observation_date": "2019-01-03",
        "data_arc_in_days": 6,
        "observations_used": 17,
        "orbit_uncertainty": "7",
        "minimum_orbit_intersection": ".000322158",
        "jupiter_tisserand_invariant": "3.479",
        "epoch_osculation": "2459000.5",
        "eccentricity": ".5792449259730312",
        "semi_major_axis": "2.134048020037456",
        "inclination": "4.251814514463828",
        "ascending_node_longitude": "275.729600273223",
        "orbital_period": "1138.687906733735",
        "perihelion_distance": ".8979115326479657",
        "perihelion_argument": "139.5426257455344",
        "aphelion_distance": "3.370184507426945",
        "perihelion_time": "2458450.553890215398",
        "mean_anomaly": "173.8673067059729",
        "mean_motion": ".316153353233232",
        "equinox": "J2000",
        "orbit_class": {
            "orbit_class_type": "APO",
            "orbit_class_description": "Near-Earth asteroid orbits which cross the Earth’s orbit similar to that of 1862 Apollo",
            "orbit_class_range": "a (semi-major axis) > 1.0 AU; q (perihelion) < 1.017 AU"
        }
    },
    "is_sentry_object": false
}